{
    "creator": "Satellites plugin version 0.12.0",
    "hintColor": [
        0.4,
        0.4,
        0.4
    ],
    "satellites": {
        "45545": {
            "comms": [
            ],
            "groups": [
                "communications",
                "starlink"
            ],
            "hintColor": [
                0,
                0.667,
                1
            ],
            "infoColor": [
                0,
                0.667,
                1
            ],
            "lastUpdated": "2021-05-09T18:26:02",
            "name": "STARLINK-1374",
            "orbitVisible": false,
            "rcs": 22.68,
            "tle1": "1 45545C 20025Q   21129.14740013 -.00031698  00000-0 -21234-2 0  1295",
            "tle2": "2 45545  53.0565 112.4419 0001307  82.2673 217.7638 15.06436732    12",
            "visible": true
        },
        "45546": {
            "comms": [
            ],
            "groups": [
                "communications",
                "starlink"
            ],
            "hintColor": [
                0,
                0.667,
                1
            ],
            "infoColor": [
                0,
                0.667,
                1
            ],
            "lastUpdated": "2021-05-09T18:26:02",
            "name": "STARLINK-1375",
            "orbitVisible": false,
            "rcs": 22.68,
            "tle1": "1 45546C 20025R   21129.15851771 -.00009680  00000-0 -64874-3 0  1295",
            "tle2": "2 45546  53.0557 112.3986 0000861  64.4118 236.0164 15.06400039    11",
            "visible": true
        },
        "45547": {
            "comms": [
            ],
            "groups": [
                "communications",
                "starlink"
            ],
            "hintColor": [
                0,
                0.667,
                1
            ],
            "infoColor": [
                0,
                0.667,
                1
            ],
            "lastUpdated": "2021-05-09T18:26:02",
            "name": "STARLINK-1377",
            "orbitVisible": false,
            "rcs": 22.68,
            "tle1": "1 45547C 20025S   21129.15485950  .00008017  00000-0  53728-3 0  1295",
            "tle2": "2 45547  53.0569 112.4124 0001204  85.7875 214.7748 15.06384336    10",
            "visible": true
        },
        "45548": {
            "comms": [
            ],
            "groups": [
                "communications",
                "starlink"
            ],
            "hintColor": [
                0,
                0.667,
                1
            ],
            "infoColor": [
                0,
                0.667,
                1
            ],
            "lastUpdated": "2021-05-09T18:26:02",
            "name": "STARLINK-1378",
            "orbitVisible": false,
            "rcs": 22.68,
            "tle1": "1 45548C 20025T   21129.14202708 -.00004355  00000-0 -29177-3 0  1297",
            "tle2": "2 45548  53.0543 112.4775 0000267  56.6707  34.2512 15.06404569    19",
            "visible": true
        },
        "45549": {
            "comms": [
            ],
            "groups": [
                "communications",
                "starlink"
            ],
            "hintColor": [
                0,
                0.667,
                1
            ],
            "infoColor": [
                0,
                0.667,
                1
            ],
            "lastUpdated": "2021-05-09T18:26:02",
            "name": "STARLINK-1379",
            "orbitVisible": false,
            "rcs": 22.68,
            "tle1": "1 45549C 20025U   21129.14584113 -.00028439  00000-0 -19056-2 0  1294",
            "tle2": "2 45549  53.0551 112.4552 0000789  64.6824  26.9868 15.06423507    15",
            "visible": true
        },
        "45550": {
            "comms": [
            ],
            "groups": [
                "communications",
                "starlink"
            ],
            "hintColor": [
                0,
                0.667,
                1
            ],
            "infoColor": [
                0,
                0.667,
                1
            ],
            "lastUpdated": "2021-05-09T18:26:02",
            "name": "STARLINK-1390",
            "orbitVisible": false,
            "rcs": 22.68,
            "tle1": "1 45550C 20025V   21129.16007847  .00015544  00000-0  10419-2 0  1297",
            "tle2": "2 45550  53.0549 112.3798 0001193  84.1516   9.8766 15.06369943    10",
            "visible": true
        },
        "45551": {
            "comms": [
            ],
            "groups": [
                "communications",
                "starlink"
            ],
            "hintColor": [
                0,
                0.667,
                1
            ],
            "infoColor": [
                0,
                0.667,
                1
            ],
            "lastUpdated": "2021-05-09T18:26:02",
            "name": "STARLINK-1294",
            "orbitVisible": false,
            "rcs": 22.68,
            "tle1": "1 45551C 20025W   21129.15832397  .00000491  00000-0  32870-4 0  1295",
            "tle2": "2 45551  53.0556  92.3969 0001417  82.4777 346.7465 15.06392419    18",
            "visible": true
        },
        "45552": {
            "comms": [
            ],
            "groups": [
                "communications",
                "starlink"
            ],
            "hintColor": [
                0,
                0.667,
                1
            ],
            "infoColor": [
                0,
                0.667,
                1
            ],
            "lastUpdated": "2021-05-09T18:26:02",
            "name": "STARLINK-1322",
            "orbitVisible": false,
            "rcs": 22.68,
            "tle1": "1 45552C 20025X   21129.15449721  .00056817  00000-0  38039-2 0  1295",
            "tle2": "2 45552  53.0559  92.4008 0001408  82.9024 345.6044 15.06370147    12",
            "visible": true
        },
        "45553": {
            "comms": [
            ],
            "groups": [
                "communications",
                "starlink"
            ],
            "hintColor": [
                0,
                0.667,
                1
            ],
            "infoColor": [
                0,
                0.667,
                1
            ],
            "lastUpdated": "2021-05-09T18:26:02",
            "name": "STARLINK-1323",
            "orbitVisible": false,
            "rcs": 22.68,
            "tle1": "1 45553C 20025Y   21129.14671701  .00024705  00000-0  16535-2 0  1298",
            "tle2": "2 45553  53.0578  92.4510 0001282  72.1517 234.0956 15.06414042    16",
            "visible": true
        },
        "45554": {
            "comms": [
            ],
            "groups": [
                "communications",
                "starlink"
            ],
            "hintColor": [
                0,
                0.667,
                1
            ],
            "infoColor": [
                0,
                0.667,
                1
            ],
            "lastUpdated": "2021-05-09T18:26:02",
            "name": "STARLINK-1325",
            "orbitVisible": false,
            "rcs": 22.68,
            "tle1": "1 45554C 20025Z   21129.16233528 -.00002929  00000-0 -19618-3 0  1294",
            "tle2": "2 45554  53.0562  92.3788 0001433  62.5393   8.5431 15.06407620    15",
            "visible": true
        },
        "45555": {
            "comms": [
            ],
            "groups": [
                "communications",
                "starlink"
            ],
            "hintColor": [
                0,
                0.667,
                1
            ],
            "infoColor": [
                0,
                0.667,
                1
            ],
            "lastUpdated": "2021-05-09T18:26:02",
            "name": "STARLINK-1327",
            "orbitVisible": false,
            "rcs": 22.68,
            "tle1": "1 45555C 20025AA  21129.13400237 -.00000101  00000-0 -67837-5 0  1293",
            "tle2": "2 45555  53.0563  92.4894 0001507  66.6437  50.6201 15.06401772    17",
            "visible": true
        },
        "45556": {
            "comms": [
            ],
            "groups": [
                "communications",
                "starlink"
            ],
            "hintColor": [
                0,
                0.667,
                1
            ],
            "infoColor": [
                0,
                0.667,
                1
            ],
            "lastUpdated": "2021-05-09T18:26:02",
            "name": "STARLINK-1334",
            "orbitVisible": false,
            "rcs": 22.68,
            "tle1": "1 45556C 20025AB  21129.16614514  .00001691  00000-0  11331-3 0  1291",
            "tle2": "2 45556  53.0567  92.3594 0001350  71.8175 359.8102 15.06397126    12",
            "visible": true
        },
        "45557": {
            "comms": [
            ],
            "groups": [
                "communications",
                "starlink"
            ],
            "hintColor": [
                0,
                0.667,
                1
            ],
            "infoColor": [
                0,
                0.667,
                1
            ],
            "lastUpdated": "2021-05-09T18:26:02",
            "name": "STARLINK-1336",
            "orbitVisible": false,
            "rcs": 22.68,
            "tle1": "1 45557C 20025AC  21129.15053206 -.00009930  00000-0 -66565-3 0  1291",
            "tle2": "2 45557  53.0583  92.4291 0001376  91.5169 215.5944 15.06389842    14",
            "visible": true
        }
    },
    "shortName": "satellite orbital data",
    "version": "0.12.0"
}
